$$SOE
2459580.500000000, A.D. 2022-Jan-01 00:00:00.0000, -1.148212879360022E+07, 3.990412428979234E+08, 3.480535769376668E+07,
2459587.500000000, A.D. 2022-Jan-08 00:00:00.0000, -2.293706749154404E+07, 3.992799672924765E+08, 3.403152284679186E+07,
2459594.500000000, A.D. 2022-Jan-15 00:00:00.0000, -3.437483824473947E+07, 3.992189580668974E+08, 3.323214113039806E+07,
2459601.500000000, A.D. 2022-Jan-22 00:00:00.0000, -4.578698404412116E+07, 3.988597965278958E+08, 3.240794016237885E+07,
2459608.500000000, A.D. 2022-Jan-29 00:00:00.0000, -5.716515943866292E+07, 3.982043320937471E+08, 3.155966357942966E+07,
2459615.500000000, A.D. 2022-Feb-05 00:00:00.0000, -6.850114206677288E+07, 3.972546740659404E+08, 3.068806986133927E+07,
2459622.500000000, A.D. 2022-Feb-12 00:00:00.0000, -7.978684148560080E+07, 3.960131819873595E+08, 2.979393087767383E+07,
2459629.500000000, A.D. 2022-Feb-19 00:00:00.0000, -9.101430661099762E+07, 3.944824570016814E+08, 2.887803047642460E+07,
2459636.500000000, A.D. 2022-Feb-26 00:00:00.0000, -1.021757330687619E+08, 3.926653335301296E+08, 2.794116317902485E+07,
2459643.500000000, A.D. 2022-Mar-05 00:00:00.0000, -1.132634702927695E+08, 3.905648706848356E+08, 2.698413291967931E+07,
2459650.500000000, A.D. 2022-Mar-12 00:00:00.0000, -1.242700281471743E+08, 3.881843433895373E+08, 2.600775180619392E+07,
2459657.500000000, A.D. 2022-Mar-19 00:00:00.0000, -1.351880830035361E+08, 3.855272332719987E+08, 2.501283890082747E+07,
2459664.500000000, A.D. 2022-Mar-26 00:00:00.0000, -1.460104832549013E+08, 3.825972193578727E+08, 2.400021902118507E+07,
2459671.500000000, A.D. 2022-Apr-02 00:00:00.0000, -1.567302542057540E+08, 3.793981685447293E+08, 2.297072155272374E+07,
2459678.500000000, A.D. 2022-Apr-09 00:00:00.0000, -1.673406020747037E+08, 3.759341258942261E+08, 2.192517925046891E+07,
2459685.500000000, A.D. 2022-Apr-16 00:00:00.0000, -1.778349167641545E+08, 3.722093054283288E+08, 2.086442705260172E+07,
2459692.500000000, A.D. 2022-Apr-23 00:00:00.0000, -1.882067746796046E+08, 3.682280825456896E+08, 1.978930111266023E+07,
2459699.500000000, A.D. 2022-Apr-30 00:00:00.0000, -1.984499434817325E+08, 3.639949858435886E+08, 1.870063803973877E+07,
2459706.500000000, A.D. 2022-May-07 00:00:00.0000, -2.085583857212098E+08, 3.595146863952044E+08, 1.759927390563442E+07,
2459713.500000000, A.D. 2022-May-14 00:00:00.0000, -2.185262599860537E+08, 3.547919875428258E+08, 1.648604314103714E+07,
2459720.500000000, A.D. 2022-May-21 00:00:00.0000, -2.283479216126500E+08, 3.498318159920040E+08, 1.536177756991319E+07,
2459727.500000000, A.D. 2022-May-28 00:00:00.0000, -2.380179234569404E+08, 3.446392132703505E+08, 1.422730554813646E+07,
2459734.500000000, A.D. 2022-Jun-04 00:00:00.0000, -2.475310164673822E+08, 3.392193272567700E+08, 1.308345115576199E+07,
2459741.500000000, A.D. 2022-Jun-11 00:00:00.0000, -2.568821499349955E+08, 3.335774038003364E+08, 1.193103343007690E+07,
2459748.500000000, A.D. 2022-Jun-18 00:00:00.0000, -2.660664714023279E+08, 3.277187784577211E+08, 1.077086563701446E+07,
2459755.500000000, A.D. 2022-Jun-25 00:00:00.0000, -2.750793262226144E+08, 3.216488683299889E+08, 9.603754575409934E+06,
2459762.500000000, A.D. 2022-Jul-02 00:00:00.0000, -2.839162566558365E+08, 3.153731639452359E+08, 8.430499896184817E+06,
2459769.500000000, A.D. 2022-Jul-09 00:00:00.0000, -2.925730001321327E+08, 3.088972213743402E+08, 7.251893414767936E+06,
2459776.500000000, A.D. 2022-Jul-16 00:00:00.0000, -3.010454867589430E+08, 3.022266556711982E+08, 6.068718509834081E+06,
2459783.500000000, A.D. 2022-Jul-23 00:00:00.0000, -3.093298382924924E+08, 2.953671357234816E+08, 4.881749815672979E+06,
2459790.500000000, A.D. 2022-Jul-30 00:00:00.0000, -3.174223685095532E+08, 2.883243771679745E+08, 3.691752925568596E+06,
2459797.500000000, A.D. 2022-Aug-06 00:00:00.0000, -3.253195813975160E+08, 2.811041340213094E+08, 2.499483828506008E+06,
2459804.500000000, A.D. 2022-Aug-13 00:00:00.0000, -3.330181680065269E+08, 2.737121917811816E+08, 1.305688379136086E+06,
2459811.500000000, A.D. 2022-Aug-20 00:00:00.0000, -3.405150035548126E+08, 2.661543614984084E+08, 1.111019026685804E+05,
2459818.500000000, A.D. 2022-Aug-27 00:00:00.0000, -3.478071447374917E+08, 2.584364740961508E+08, -1.083551132100329E+06,
2459825.500000000, A.D. 2022-Sep-03 00:00:00.0000, -3.548918270075818E+08, 2.505643748263191E+08, -2.277557404549628E+06,
2459832.500000000, A.D. 2022-Sep-10 00:00:00.0000, -3.617664617545508E+08, 2.425439178862232E+08, -3.470215006281450E+06,
2459839.500000000, A.D. 2022-Sep-17 00:00:00.0000, -3.684286333650277E+08, 2.343809611913044E+08, -4.660833681469277E+06,
2459846.500000000, A.D. 2022-Sep-24 00:00:00.0000, -3.748760961184667E+08, 2.260813612486341E+08, -5.848735054299101E+06,
2459853.500000000, A.D. 2022-Oct-01 00:00:00.0000, -3.811067706915070E+08, 2.176509681028548E+08, -7.033252868436038E+06,
2459860.500000000, A.D. 2022-Oct-08 00:00:00.0000, -3.871187398787140E+08, 2.090956208702890E+08, -8.213733234482989E+06,
2459867.500000000, A.D. 2022-Oct-15 00:00:00.0000, -3.929102444777002E+08, 2.004211450549584E+08, -9.389534703588523E+06,
2459874.500000000, A.D. 2022-Oct-22 00:00:00.0000, -3.984796815368155E+08, 1.916333499592656E+08, -1.056002810676182E+07,
2459881.500000000, A.D. 2022-Oct-29 00:00:00.0000, -4.038256024805864E+08, 1.827380235939169E+08, -1.172459660293216E+07,
2459888.500000000, A.D. 2022-Nov-05 00:00:00.0000, -4.089467090214726E+08, 1.737409278230055E+08, -1.288263590564898E+07,
2459895.500000000, A.D. 2022-Nov-12 00:00:00.0000, -4.138418488320637E+08, 1.646477950035234E+08, -1.403355440604705E+07,
2459902.500000000, A.D. 2022-Nov-19 00:00:00.0000, -4.185100117079137E+08, 1.554643251587054E+08, -1.517677320574616E+07,
2459909.500000000, A.D. 2022-Nov-26 00:00:00.0000, -4.229503259676990E+08, 1.461961832818032E+08, -1.631172611765233E+07,
2459916.500000000, A.D. 2022-Dec-03 00:00:00.0000, -4.271620549321597E+08, 1.368489967517777E+08, -1.743785965203090E+07,
2459923.500000000, A.D. 2022-Dec-10 00:00:00.0000, -4.311445934433948E+08, 1.274283528721530E+08, -1.855463299162054E+07,
2459930.500000000, A.D. 2022-Dec-17 00:00:00.0000, -4.348974644065650E+08, 1.179397965005844E+08, -1.966151796118055E+07,
2459937.500000000, A.D. 2022-Dec-24 00:00:00.0000, -4.384203152509000E+08, 1.083888276959480E+08, -2.075799900791512E+07,
2459944.500000000, A.D. 2022-Dec-31 00:00:00.0000, -4.417129139579888E+08, 9.878089948316054E+07, -2.184357321774678E+07,
2459951.500000000, A.D. 2023-Jan-07 00:00:00.0000, -4.447751445395259E+08, 8.912141669065362E+07, -2.291775030092554E+07,
2459958.500000000, A.D. 2023-Jan-14 00:00:00.0000, -4.476070039365104E+08, 7.941573634953429E+07, -2.398005232688127E+07,
2459965.500000000, A.D. 2023-Jan-21 00:00:00.0000, -4.502086009906927E+08, 6.966916647475731E+07, -2.503001340960851E+07,
2459972.500000000, A.D. 2023-Jan-28 00:00:00.0000, -4.525801538246176E+08, 5.988696302732293E+07, -2.606717969689448E+07,
2459979.500000000, A.D. 2023-Feb-04 00:00:00.0000, -4.547219858399590E+08, 5.007432807865412E+07, -2.709110939718702E+07,
2459986.500000000, A.D. 2023-Feb-11 00:00:00.0000, -4.566345221316380E+08, 4.023640897551461E+07, -2.810137269585531E+07,
2459993.500000000, A.D. 2023-Feb-18 00:00:00.0000, -4.583182863848934E+08, 3.037829767544603E+07, -2.909755162325381E+07,
2460000.500000000, A.D. 2023-Feb-25 00:00:00.0000, -4.597738979954866E+08, 2.050503008539419E+07, -3.007923991268455E+07,
2460007.500000000, A.D. 2023-Mar-04 00:00:00.0000, -4.610020693124401E+08, 1.062158541698255E+07, -3.104604285661817E+07,
2460014.500000000, A.D. 2023-Mar-11 00:00:00.0000, -4.620036029755171E+08, 7.328855534963105E+05, -3.199757716414443E+07,
2460021.500000000, A.D. 2023-Mar-18 00:00:00.0000, -4.627793893007494E+08, -9.156205626348456E+06, -3.293347082831383E+07,
2460028.500000000, A.D. 2023-Mar-25 00:00:00.0000, -4.633304035106680E+08, -1.904088302052306E+07, -3.385336302609016E+07,
2460035.500000000, A.D. 2023-Apr-01 00:00:00.0000, -4.636577023843333E+08, -2.891640078387776E+07, -3.475690405784351E+07,
2460042.500000000, A.D. 2023-Apr-08 00:00:00.0000, -4.637624209419887E+08, -3.877807129736224E+07, -3.564375516996761E+07,
2460049.500000000, A.D. 2023-Apr-15 00:00:00.0000, -4.636457715017418E+08, -4.862126373891164E+07, -3.651358813705286E+07,
2460056.500000000, A.D. 2023-Apr-22 00:00:00.0000, -4.633090433013434E+08, -5.844140531379156E+07, -3.736608501975799E+07,
2460063.500000000, A.D. 2023-Apr-29 00:00:00.0000, -4.627535999514751E+08, -6.823398289546664E+07, -3.820093816573713E+07,
2460070.500000000, A.D. 2023-May-06 00:00:00.0000, -4.619808764799290E+08, -7.799454329956645E+07, -3.901785014687781E+07,
2460077.500000000, A.D. 2023-May-13 00:00:00.0000, -4.609923769428545E+08, -8.771869308890492E+07, -3.981653361679804E+07,
2460084.500000000, A.D. 2023-May-20 00:00:00.0000, -4.597896723690507E+08, -9.740209840439583E+07, -4.059671115093140E+07,
2460091.500000000, A.D. 2023-May-27 00:00:00.0000, -4.583743988429985E+08, -1.070404848540870E+08, -4.135811508981609E+07,
2460098.500000000, A.D. 2023-Jun-03 00:00:00.0000, -4.567482556667683E+08, -1.166296374372586E+08, -4.210048738889683E+07,
2460105.500000000, A.D. 2023-Jun-10 00:00:00.0000, -4.549130035743071E+08, -1.261654005212753E+08, -4.282357947827768E+07,
2460112.500000000, A.D. 2023-Jun-17 00:00:00.0000, -4.528704629072114E+08, -1.356436779360541E+08, -4.352715214590231E+07,
2460119.500000000, A.D. 2023-Jun-24 00:00:00.0000, -4.506225114314381E+08, -1.450604331352262E+08, -4.421097546966626E+07,
2460126.500000000, A.D. 2023-Jul-01 00:00:00.0000, -4.481710815418422E+08, -1.544116885996971E+08, -4.487482875477111E+07,
2460133.500000000, A.D. 2023-Jul-08 00:00:00.0000, -4.455181585281281E+08, -1.636935236645526E+08, -4.551850025620467E+07,
2460140.500000000, A.D. 2023-Jul-15 00:00:00.0000, -4.426657811785464E+08, -1.729020736022052E+08, -4.614178680106870E+07,
2460147.500000000, A.D. 2023-Jul-22 00:00:00.0000, -4.396160412001888E+08, -1.820335309988755E+08, -4.674449371882185E+07,
$$EOE